{
  "norad_id": 65227,
  "name": "SKYKRAFT-4E",
  "history": [
    {
      "epoch": "2026-05-02T03:39:30.728736Z",
      "apogee_km": 579.4649339814296,
      "perigee_km": 570.7969901399247,
      "latitude_deg": 5.896100671795651e-07,
      "longitude_deg": -87.1824149551336,
      "height_km": 576.3698405797022,
      "semi_major_axis_km": 6953.267962060677,
      "eccentricity": 0.0006233,
      "inclination_deg": 97.6714,
      "raan_deg": 187.7702,
      "arg_perigee_deg": 65.4319,
      "mean_anomaly_deg": 294.7552,
      "mean_motion_rev_day": 14.97336159
    },
    {
      "epoch": "2026-05-03T16:32:48.187968Z",
      "apogee_km": 579.2624171062598,
      "perigee_km": 570.8893581469783,
      "latitude_deg": 4.591297698694545e-05,
      "longitude_deg": 79.4890843602694,
      "height_km": 576.0527662779444,
      "semi_major_axis_km": 6953.212887626619,
      "eccentricity": 0.0006021,
      "inclination_deg": 97.6706,
      "raan_deg": 189.2794,
      "arg_perigee_deg": 60.4472,
      "mean_anomaly_deg": 299.735,
      "mean_motion_rev_day": 14.97353949
    },
    {
      "epoch": "2026-05-04T18:12:28.076256Z",
      "apogee_km": 579.1051816693689,
      "perigee_km": 570.9699674171534,
      "latitude_deg": 1.8930443069373423e-05,
      "longitude_deg": 54.56882001820421,
      "height_km": 575.8673379959375,
      "semi_major_axis_km": 6953.174574543261,
      "eccentricity": 0.000585,
      "inclination_deg": 97.67,
      "raan_deg": 190.3292,
      "arg_perigee_deg": 57.0442,
      "mean_anomaly_deg": 303.1342,
      "mean_motion_rev_day": 14.97366325
    },
    {
      "epoch": "2026-05-05T18:15:53.334144Z",
      "apogee_km": 578.9452154861101,
      "perigee_km": 571.0339480613675,
      "latitude_deg": -3.429642225079562e-06,
      "longitude_deg": 53.709691472294445,
      "height_km": 575.702103339817,
      "semi_major_axis_km": 6953.1265817737385,
      "eccentricity": 0.0005689,
      "inclination_deg": 97.6696,
      "raan_deg": 191.3133,
      "arg_perigee_deg": 53.8996,
      "mean_anomaly_deg": 306.2752,
      "mean_motion_rev_day": 14.97381828
    },
    {
      "epoch": "2026-05-06T18:19:17.906880Z",
      "apogee_km": 578.8105733660477,
      "perigee_km": 571.1023739411557,
      "latitude_deg": -2.0639450779730522e-05,
      "longitude_deg": 52.853524816023274,
      "height_km": 575.5621304340725,
      "semi_major_axis_km": 6953.093473653602,
      "eccentricity": 0.0005543,
      "inclination_deg": 97.6692,
      "raan_deg": 192.2975,
      "arg_perigee_deg": 50.7564,
      "mean_anomaly_deg": 309.4149,
      "mean_motion_rev_day": 14.97392523
    },
    {
      "epoch": "2026-05-07T18:22:42.068352Z",
      "apogee_km": 578.7022618932033,
      "perigee_km": 571.1665231180059,
      "latitude_deg": -4.144374340256553e-06,
      "longitude_deg": 51.99897222126597,
      "height_km": 575.4528764370036,
      "semi_major_axis_km": 6953.071392505604,
      "eccentricity": 0.0005419,
      "inclination_deg": 97.6691,
      "raan_deg": 193.2816,
      "arg_perigee_deg": 47.9037,
      "mean_anomaly_deg": 312.2645,
      "mean_motion_rev_day": 14.97399656
    }
  ]
}